{"type": "FeatureCollection", "features": [{"type": "Feature", "properties": {"name": "TMK 3-2-003:026", "TMK": "(3) 3-2-003:026", "Acres, county record": "34.53", "Source": "Hawaii County tax map parcels, state GIS. Not a survey."}, "geometry": {"type": "LineString", "coordinates": [[-155.175979, 19.9437], [-155.176373, 19.943535], [-155.176518, 19.943659], [-155.176751, 19.94348], [-155.177246, 19.943381], [-155.17738, 19.943326], [-155.177747, 19.942979], [-155.178143, 19.942869], [-155.178242, 19.942803], [-155.178498, 19.942489], [-155.178841, 19.942357], [-155.178964, 19.942263], [-155.179086, 19.942104], [-155.179377, 19.94152], [-155.179557, 19.941333], [-155.180064, 19.940948], [-155.180477, 19.940766], [-155.180628, 19.940639], [-155.180745, 19.940359], [-155.180751, 19.94021], [-155.180989, 19.939902], [-155.181257, 19.939032], [-155.181996, 19.938564], [-155.1823, 19.938429], [-155.181948, 19.93821], [-155.18103, 19.938246], [-155.180516, 19.937942], [-155.180339, 19.937581], [-155.180075, 19.937705], [-155.180052, 19.937749], [-155.180087, 19.938008], [-155.180017, 19.938135], [-155.179563, 19.938498], [-155.179365, 19.938933], [-155.179196, 19.93912], [-155.179167, 19.939428], [-155.17908, 19.939566], [-155.178993, 19.939654], [-155.178637, 19.93988], [-155.178463, 19.94005], [-155.178381, 19.94021], [-155.178329, 19.940942], [-155.178282, 19.940997], [-155.17809, 19.941096], [-155.177508, 19.941135], [-155.177211, 19.941272], [-155.176676, 19.941718], [-155.176489, 19.942054], [-155.176355, 19.942555], [-155.176227, 19.942808], [-155.176064, 19.942918], [-155.175773, 19.943034], [-155.175566, 19.943172], [-155.175979, 19.9437]]}}, {"type": "Feature", "properties": {"name": "TMK 3-2-003:047", "TMK": "(3) 3-2-003:047", "Acres, county record": "0.11", "Source": "Hawaii County tax map parcels, state GIS. Not a survey."}, "geometry": {"type": "LineString", "coordinates": [[-155.182137, 19.938198], [-155.182404, 19.938369], [-155.182582, 19.938197], [-155.182137, 19.938198]]}}, {"type": "Feature", "properties": {"name": "TMK 3-2-003:048", "TMK": "(3) 3-2-003:048", "Acres, county record": "0.21", "Source": "Hawaii County tax map parcels, state GIS. Not a survey."}, "geometry": {"type": "LineString", "coordinates": [[-155.181058, 19.938145], [-155.18176, 19.938122], [-155.181387, 19.938032], [-155.180823, 19.937994], [-155.181058, 19.938145]]}}, {"type": "Feature", "properties": {"name": "TMK 3-2-003:043", "TMK": "(3) 3-2-003:043", "Acres, county record": "49.11", "Source": "Hawaii County tax map parcels, state GIS. Not a survey."}, "geometry": {"type": "LineString", "coordinates": [[-155.182137, 19.938198], [-155.182582, 19.938197], [-155.182747, 19.938057], [-155.183236, 19.937457], [-155.183434, 19.937078], [-155.183516, 19.937022], [-155.183702, 19.936989], [-155.183999, 19.936455], [-155.184342, 19.936191], [-155.184721, 19.935718], [-155.185093, 19.93542], [-155.185175, 19.935332], [-155.185216, 19.935151], [-155.18532, 19.93498], [-155.185629, 19.934776], [-155.185821, 19.934562], [-155.186013, 19.934259], [-155.186199, 19.934033], [-155.186351, 19.933912], [-155.186531, 19.933626], [-155.186583, 19.933455], [-155.186601, 19.933169], [-155.186682, 19.932905], [-155.186752, 19.932684], [-155.18688, 19.932519], [-155.187299, 19.932183], [-155.187456, 19.931947], [-155.187701, 19.931782], [-155.187928, 19.931567], [-155.188114, 19.93133], [-155.188266, 19.931215], [-155.188388, 19.931154], [-155.189008, 19.930994], [-155.189115, 19.930995], [-155.188033, 19.930502], [-155.187922, 19.930637], [-155.187718, 19.930615], [-155.187398, 19.930521], [-155.187258, 19.930527], [-155.186967, 19.93073], [-155.186641, 19.930807], [-155.186484, 19.930879], [-155.18638, 19.930956], [-155.186327, 19.931088], [-155.186281, 19.931584], [-155.186217, 19.931666], [-155.185797, 19.931859], [-155.185629, 19.931974], [-155.185535, 19.932167], [-155.184942, 19.932778], [-155.184709, 19.933274], [-155.184284, 19.933488], [-155.18401, 19.933675], [-155.183265, 19.934545], [-155.182747, 19.935008], [-155.182637, 19.93525], [-155.18245, 19.936026], [-155.182351, 19.936285], [-155.182282, 19.936367], [-155.182066, 19.936389], [-155.181519, 19.936059], [-155.181397, 19.936026], [-155.181199, 19.936098], [-155.181082, 19.936235], [-155.181018, 19.936461], [-155.180809, 19.936918], [-155.180722, 19.937314], [-155.180664, 19.937399], [-155.18043, 19.93752], [-155.180582, 19.937851], [-155.180823, 19.937994], [-155.181387, 19.938032], [-155.18176, 19.938122], [-155.181974, 19.938109], [-155.182137, 19.938198]]}}]}